COMMENT,ORIGINATOR,NORAD_CAT_ID,OBJECT_NAME,OBJECT_TYPE,CLASSIFICATION_TYPE,INTLDES,EPOCH,EPOCH_MICROSECONDS,MEAN_MOTION,ECCENTRICITY,INCLINATION,RA_OF_ASC_NODE,ARG_OF_PERICENTER,MEAN_ANOMALY,EPHEMERIS_TYPE,ELEMENT_SET_NO,REV_AT_EPOCH,BSTAR,MEAN_MOTION_DOT,MEAN_MOTION_DDOT,FILE,TLE_LINE0,TLE_LINE1,TLE_LINE2,OBJECT_ID,OBJECT_NUMBER,SEMIMAJOR_AXIS,PERIOD,APOGEE,PERIGEE,DECAYED
"GENERATED VIA SPACETRACK.ORG API","18 SPCS","47950","OBJECT U","TBA","U","21022U","2021-10-27 19:58:28","824384","15.05992115","0.0020302","97.5409","200.1883","219.5398","230.3273","0","999","3297","0.0000628","0.00000857","0","3187737","0 OBJECT U","1 47950U 21022U   21300.83227806  .00000857  00000-0  62800-4 0  9994","2 47950  97.5409 200.1883 0020302 219.5398 230.3273 15.05992115 32976","2021-022U","47950","6926.599","95.618","562.526","534.402","0"
"GENERATED VIA SPACETRACK.ORG API","18 SPCS","47950","OBJECT U","TBA","U","21022U","2021-10-28 05:40:03","989856","15.05993777","0.0020449","97.5408","200.5832","217.9897","260.1685","0","999","3303","0.000069608","0.00000957","0","3188408","0 OBJECT U","1 47950U 21022U   21301.23615729  .00000957  00000-0  69608-4 0  9998","2 47950  97.5408 200.5832 0020449 217.9897 260.1685 15.05993777 33032","2021-022U","47950","6926.594","95.618","562.623","534.295","0"
"GENERATED VIA SPACETRACK.ORG API","18 SPCS","47950","OBJECT U","TBA","U","21022U","2021-10-28 13:39:01","339200","15.05996015","0.0020386","97.541","200.909","217.097","263.1977","0","999","3308","0.000081823","0.00001135","0","3189056","0 OBJECT U","1 47950U 21022U   21301.56876550  .00001135  00000-0  81823-4 0  9997","2 47950  97.5410 200.9090 0020386 217.0970 263.1977 15.05996015 33088","2021-022U","47950","6926.587","95.618","562.573","534.331","0"
"GENERATED VIA SPACETRACK.ORG API","18 SPCS","47950","OBJECT U","TBA","U","21022U","2021-10-28 13:39:01","339200","15.05996015","0.0020386","97.541","200.909","217.097","263.1977","0","999","3308","0.000081823","0.00001135","0","3189111","0 OBJECT U","1 47950U 21022U   21301.56876550  .00001135  00000-0  81823-4 0  9997","2 47950  97.5410 200.9090 0020386 217.0970 263.1977 15.05996015 33088","2021-022U","47950","6926.587","95.618","562.573","534.331","0"
"GENERATED VIA SPACETRACK.ORG API","18 SPCS","47950","OBJECT U","TBA","U","21022U","2021-10-28 19:53:55","555872","15.05997299","0.0020412","97.5409","201.1633","216.1687","234.7506","0","999","3312","0.000087589","0.0000122","0","3189355","0 OBJECT U","1 47950U 21022U   21301.82911523  .00001220  00000-0  87589-4 0  9996","2 47950  97.5409 201.1633 0020412 216.1687 234.7506 15.05997299 33129","2021-022U","47950","6926.583","95.618","562.587","534.310","0"
"GENERATED VIA SPACETRACK.ORG API","18 SPCS","47950","OBJECT U","TBA","U","21022U","2021-10-28 19:53:55","555872","15.05997299","0.0020412","97.5409","201.1633","216.1687","234.7506","0","999","3312","0.000087589","0.0000122","0","3189402","0 OBJECT U","1 47950U 21022U   21301.82911523  .00001220  00000-0  87589-4 0  9996","2 47950  97.5409 201.1633 0020412 216.1687 234.7506 15.05997299 33129","2021-022U","47950","6926.583","95.618","562.587","534.310","0"
"GENERATED VIA SPACETRACK.ORG API","18 SPCS","47950","OBJECT U","TBA","U","21022U","2021-10-29 04:10:01","147296","15.05999417","0.0020576","97.541","201.5007","214.5736","302.9693","0","999","3317","0.000096958","0.00001357","0","3190018","0 OBJECT U","1 47950U 21022U   21302.17362439  .00001357  00000-0  96958-4 0  9992","2 47950  97.5410 201.5007 0020576 214.5736 302.9693 15.05999417 33172","2021-022U","47950","6926.577","95.618","562.694","534.189","0"
"GENERATED VIA SPACETRACK.ORG API","18 SPCS","47950","OBJECT U","TBA","U","21022U","2021-10-29 11:59:47","226624","15.06001805","0.0020473","97.5411","201.8201","213.5643","271.5509","0","999","3322","0.0001089","0.00001532","0","3191092","0 OBJECT U","1 47950U 21022U   21302.49985216  .00001532  00000-0  10890-3 0  9996","2 47950  97.5411 201.8201 0020473 213.5643 271.5509 15.06001805 33223","2021-022U","47950","6926.569","95.617","562.615","534.253","0"
"GENERATED VIA SPACETRACK.ORG API","18 SPCS","47950","OBJECT U","TBA","U","21022U","2021-10-29 11:59:47","226624","15.06001805","0.0020473","97.5411","201.8201","213.5643","271.5509","0","999","3322","0.0001089","0.00001532","0","3191412","0 OBJECT U","1 47950U 21022U   21302.49985216  .00001532  00000-0  10890-3 0  9996","2 47950  97.5411 201.8201 0020473 213.5643 271.5509 15.06001805 33223","2021-022U","47950","6926.569","95.617","562.615","534.253","0"
"GENERATED VIA SPACETRACK.ORG API","18 SPCS","47950","OBJECT U","TBA","U","21022U","2021-10-29 19:44:14","836416","15.06003953","0.0020465","97.5411","202.1352","212.6433","220.0728","0","999","3327","0.00011843","0.00001672","0","3191672","0 OBJECT U","1 47950U 21022U   21302.82239394  .00001672  00000-0  11843-3 0  9996","2 47950  97.5411 202.1352 0020465 212.6433 220.0728 15.06003953 33275","2021-022U","47950","6926.563","95.617","562.603","534.252","0"
"GENERATED VIA SPACETRACK.ORG API","18 SPCS","47950","OBJECT U","TBA","U","21022U","2021-10-29 19:44:14","836416","15.06003953","0.0020465","97.5411","202.1352","212.6433","220.0728","0","999","3327","0.00011843","0.00001672","0","3191844","0 OBJECT U","1 47950U 21022U   21302.82239394  .00001672  00000-0  11843-3 0  9996","2 47950  97.5411 202.1352 0020465 212.6433 220.0728 15.06003953 33275","2021-022U","47950","6926.563","95.617","562.603","534.252","0"
"GENERATED VIA SPACETRACK.ORG API","18 SPCS","47950","OBJECT U","TBA","U","21022U","2021-10-30 04:00:42","203232","15.06006404","0.0020564","97.5412","202.4725","211.2665","289.4465","0","999","3332","0.00012815","0.00001814","0","3192162","0 OBJECT U","1 47950U 21022U   21303.16715513  .00001814  00000-0  12815-3 0  9994","2 47950  97.5412 202.4725 0020564 211.2665 289.4465 15.06006404 33322","2021-022U","47950","6926.555","95.617","562.664","534.176","0"
"GENERATED VIA SPACETRACK.ORG API","18 SPCS","47950","OBJECT U","TBA","U","21022U","2021-10-30 12:08:08","101248","15.06009043","0.0020527","97.5414","202.8044","209.808","324.9485","0","999","3337","0.00013929","0.00001977","0","3192764","0 OBJECT U","1 47950U 21022U   21303.50564932  .00001977  00000-0  13929-3 0  9996","2 47950  97.5414 202.8044 0020527 209.8080 324.9485 15.06009043 33379","2021-022U","47950","6926.547","95.617","562.630","534.194","0"
"GENERATED VIA SPACETRACK.ORG API","18 SPCS","47950","OBJECT U","TBA","U","21022U","2021-10-30 12:08:08","101248","15.06009043","0.0020527","97.5414","202.8044","209.808","324.9485","0","999","3337","0.00013929","0.00001977","0","3192905","0 OBJECT U","1 47950U 21022U   21303.50564932  .00001977  00000-0  13929-3 0  9996","2 47950  97.5414 202.8044 0020527 209.8080 324.9485 15.06009043 33379","2021-022U","47950","6926.547","95.617","562.630","534.194","0"
"GENERATED VIA SPACETRACK.ORG API","18 SPCS","47950","OBJECT U","TBA","U","21022U","2021-10-30 19:39:26","180064","15.06011471","0.0020543","97.5414","203.1108","208.9454","223.909","0","999","3342","0.00014897","0.00002119","0","3193281","0 OBJECT U","1 47950U 21022U   21303.81905301  .00002119  00000-0  14897-3 0  9993","2 47950  97.5414 203.1108 0020543 208.9454 223.9090 15.06011471 33421","2021-022U","47950","6926.540","95.617","562.634","534.175","0"
"GENERATED VIA SPACETRACK.ORG API","18 SPCS","47950","OBJECT U","TBA","U","21022U","2021-10-31 03:57:04","159872","15.06014186","0.0020556","97.5412","203.4489","207.6898","297.5974","0","999","3347","0.00015872","0.00002262","0","3193680","0 OBJECT U","1 47950U 21022U   21304.16463148  .00002262  00000-0  15872-3 0  9993","2 47950  97.5412 203.4489 0020556 207.6898 297.5974 15.06014186 33475","2021-022U","47950","6926.531","95.617","562.634","534.158","0"
"GENERATED VIA SPACETRACK.ORG API","18 SPCS","47950","OBJECT U","TBA","U","21022U","2021-10-31 12:03:17","724672","15.06017054","0.0020491","97.5414","203.7795","206.3557","328.4478","0","999","3352","0.00016902","0.00002413","0","3194317","0 OBJECT U","1 47950U 21022U   21304.50228848  .00002413  00000-0  16902-3 0  9990","2 47950  97.5414 203.7795 0020491 206.3557 328.4478 15.06017054 33522","2021-022U","47950","6926.522","95.616","562.581","534.194","0"
"GENERATED VIA SPACETRACK.ORG API","18 SPCS","47950","OBJECT U","TBA","U","21022U","2021-10-31 12:03:17","724672","15.06017054","0.0020491","97.5414","203.7795","206.3557","328.4478","0","999","3352","0.00016902","0.00002413","0","3194431","0 OBJECT U","1 47950U 21022U   21304.50228848  .00002413  00000-0  16902-3 0  9990","2 47950  97.5414 203.7795 0020491 206.3557 328.4478 15.06017054 33522","2021-022U","47950","6926.522","95.616","562.581","534.194","0"
"GENERATED VIA SPACETRACK.ORG API","18 SPCS","47950","OBJECT U","TBA","U","21022U","2021-10-31 19:34:39","134208","15.06019574","0.0020584","97.5415","204.0862","205.3317","227.788","0","999","3357","0.00017711","0.00002532","0","3194884","0 OBJECT U","1 47950U 21022U   21304.81573072  .00002532  00000-0  17711-3 0  9997","2 47950  97.5415 204.0862 0020584 205.3317 227.7880 15.06019574 33570","2021-022U","47950","6926.515","95.616","562.637","534.122","0"
"GENERATED VIA SPACETRACK.ORG API","18 SPCS","47950","OBJECT U","TBA","U","21022U","2021-10-31 19:34:39","134208","15.06019574","0.0020584","97.5415","204.0862","205.3317","227.788","0","999","3357","0.00017711","0.00002532","0","3194950","0 OBJECT U","1 47950U 21022U   21304.81573072  .00002532  00000-0  17711-3 0  9997","2 47950  97.5415 204.0862 0020584 205.3317 227.7880 15.06019574 33570","2021-022U","47950","6926.515","95.616","562.637","534.122","0"
